1 39166U 13023A   25274.42182614  .00000024  00000-0  00000-0 0  9998
2 39166  54.7125 279.5065 0133975  48.1422 313.0249  2.00565480 90690
